ATLAS CENTAUR 2         
1 00694U 63047A   26166.23050384  .00001188  00000+0  12973-3 0  9997
2 00694  30.3577  10.3360 0545988 220.2600 135.6319 14.12515704145424
THOR AGENA D R/B        
1 00733U 64002A   26166.55219703  .00000128  00000+0  63094-4 0  9994
2 00733  99.1155 185.1960 0032396 335.4214  24.5424 14.34065022252322
SL-3 R/B                
1 00877U 64053B   26166.00322642  .00000087  00000+0  41162-4 0  9992
2 00877  65.0776  45.9165 0081033 261.7924  97.3980 14.61425908281019
SL-8 R/B                
1 02802U 67045B   26166.42506297  .00000144  00000+0  47462-4 0  9995
2 02802  74.0095 165.5497 0063505 150.4058 210.0719 14.45681315103145
SL-8 R/B                
1 03230U 68040B   26166.32022624  .00002479  00000+0  18214-3 0  9998
2 03230  74.0303 114.1085 0025959 267.5887  92.2330 15.03807352104682
OAO 2                   
1 03597U 68110A   26166.46785999  .00000168  00000+0  50306-4 0  9990
2 03597  34.9941  79.2785 0006234 261.6694  98.3290 14.47351453 33276
ISIS 1                  
1 03669U 69009A   26166.15575223  .00000027  00000+0  20421-4 0  9990
2 03669  88.4428 144.6230 1706169 252.3304  88.4907 11.30433645359541
SERT 2                  
1 04327U 70009A   26166.58420291 -.00000011  00000+0  41910-4 0  9995
2 04327  99.2841 104.3833 0003945 278.4306 255.3052 13.58739017793188
SL-3 R/B                
1 05118U 71028B   26166.58909970  .00043203  00000+0  36243-3 0  9993
2 05118  81.2337 290.3416 0013943 285.9856  73.9865 15.69607224  3990
ASTEX 1                 
1 05560U 71089A   26166.55496236  .00000389  00000+0  98637-4 0  9998
2 05560  92.6999 183.3302 0017812 111.0644 249.2469 14.50850661876494
SL-8 R/B                
1 05730U 71119B   26166.55804508  .00002818  00000+0  14641-3 0  9997
2 05730  73.8874 352.5163 0543776 298.8100  55.9483 14.39498277669569
OAO 3 (COPERNICUS)      
1 06153U 72065A   26166.54709076  .00000232  00000+0  51863-4 0  9997
2 06153  35.0056  99.7495 0007263 243.2122 284.4373 14.60059476860505
ATLAS CENTAUR R/B       
1 06155U 72065B   26166.11607953  .00000983  00000+0  13640-3 0  9996
2 06155  35.0013  94.6833 0032845 111.1338 249.2878 14.77917523855682
SL-8 R/B                
1 08459U 75112B   26166.51049964  .00000202  00000+0  74878-4 0  9992
2 08459  74.0594 198.9585 0016863 266.1127  93.8099 14.38245537645938
SL-3 R/B                
1 10114U 77057B   26166.53623362  .00009453  00000+0  18360-3 0  9995
2 10114  97.5829 342.9972 0005434 292.6918  67.3756 15.47854162683451
SEASAT 1                
1 10967U 78064A   26166.37203027  .00000213  00000+0  97845-4 0  9995
2 10967 108.0170 330.4785 0001882 240.4518 119.6440 14.46242193520632
SL-14 R/B               
1 11267U 79011B   26166.56598585  .00000449  00000+0  41584-4 0  9999
2 11267  82.5238   3.6930 0017531  90.5151 269.8078 14.92013028543378
SL-8 R/B                
1 11574U 79089B   26166.60976057  .00000177  00000+0  61514-4 0  9997
2 11574  74.0694 269.7774 0014946  54.1636 306.0906 14.42403403450223
SL-14 R/B               
1 11672U 80005B   26166.57634298  .00000420  00000+0  39839-4 0  9996
2 11672  82.5141 214.3683 0015346 191.3390 168.7485 14.91027775491075
SL-8 R/B                
1 12139U 81003B   26166.56617566  .00013982  00000+0  34203-3 0  9998
2 12139  82.9361 199.2779 0250652 196.8369 162.4440 15.14181908329477
SL-3 R/B                
1 12465U 81046B   26166.56939410  .00009763  00000+0  21095-3 0  9999
2 12465  81.2289 172.0178 0018699  43.1301 317.1403 15.44168334453528
SL-3 R/B                
1 12904U 81103B   26166.54216104  .00004121  00000+0  17767-3 0  9991
2 12904  81.1591  98.5659 0011908 322.0111  38.0280 15.22274964988114
SL-3 R/B                
1 13068U 82013B   26166.51426242  .00002895  00000+0  12211-3 0  9992
2 13068  81.1742  46.0217 0021262 206.6206 153.3936 15.22778539419236
SL-3 R/B                
1 13154U 82039B   26166.57753156  .00003067  00000+0  18287-3 0  9990
2 13154  81.1443 102.9462 0029031   1.6015 358.5297 15.10529948396415
SL-3 R/B                
1 13403U 82079B   26166.54231180  .00003858  00000+0  14890-3 0  9990
2 13403  81.1468  77.4331 0023576 191.0711 169.0008 15.25777934392614
SL-14 R/B               
1 13553U 82092B   26166.45779646  .00000357  00000+0  37303-4 0  9991
2 13553  82.5682  49.9216 0019814 341.1929 191.6458 14.86746751343455
SL-3 R/B                
1 13819U 83010B   26166.44437908  .00011780  00000+0  21452-3 0  9997
2 13819  81.1021 242.1109 0015618  68.3852 291.9056 15.49204421373062
SL-3 R/B                
1 14208U 83075B   26166.57498894  .00008004  00000+0  19856-3 0  9996
2 14208  97.6097 175.0134 0019169 235.2534 124.6907 15.40467774345215
COSMOS 1536             
1 14699U 84013A   26166.58763839  .00005144  00000+0  20424-3 0  9993
2 14699  82.5440  10.4383 0012703 301.7427  58.2572 15.25037662287531
SL-14 R/B               
1 14820U 84027B   26166.46427727  .00000365  00000+0  38777-4 0  9995
2 14820  82.5411 153.3330 0018324  14.7584 345.4164 14.86058525262150
